start=new Date('2023-04-07T00:00:00.000Z').valueOf();
sats=[{"TLE_LINE1":"1 53014U 22076AE  23096.72001824  .00002453  00000-0  17210-3 0  9992","FILE":"3882049","MEAN_MOTION":"15.08855550","MEAN_ANOMALY":"257.8492","CENTER_NAME":"EARTH","MEAN_ELEMENT_THEORY":"SGP4","REF_FRAME":"TEME","DECAY_DATE":null,"PERIOD":"95.437","RCS_SIZE":"LARGE","MEAN_MOTION_DDOT":"0.0000000000000","EPHEMERIS_TYPE":"0","ECCENTRICITY":"0.00008380","TLE_LINE2":"2 53014  53.2167 198.4205 0000838 102.2594 257.8492 15.08855550 41756","LAUNCH_DATE":"2022-07-07","EPOCH":"2023-04-06T17:16:49.575936","REV_AT_EPOCH":"4175","TIME_SYSTEM":"UTC","OBJECT_ID":"2022-076AE","OBJECT_TYPE":"PAYLOAD","ELEMENT_SET_NO":"999","GP_ID":"229644128","PERIAPSIS":"539.118","CLASSIFICATION_TYPE":"U","NORAD_CAT_ID":"53014","BSTAR":"0.00017210000000","ARG_OF_PERICENTER":"102.2594","INCLINATION":"53.2167","APOAPSIS":"540.278","SEMIMAJOR_AXIS":"6917.833","MEAN_MOTION_DOT":"0.00002453","COUNTRY_CODE":"US","RA_OF_ASC_NODE":"198.4205","SITE":"AFETR","OBJECT_NAME":"STARLINK-4183"},{"EPOCH":"2023-04-06T18:20:26.043648","LAUNCH_DATE":"2022-07-07","EPHEMERIS_TYPE":"0","MEAN_MOTION_DDOT":"0.0000000000000","TLE_LINE2":"2 53015  53.2150 198.2230 0001206  86.8284 273.2846 15.08860328 41763","ECCENTRICITY":"0.00012060","RCS_SIZE":"LARGE","DECAY_DATE":null,"PERIOD":"95.436","MEAN_ANOMALY":"273.2846","CENTER_NAME":"EARTH","MEAN_ELEMENT_THEORY":"SGP4","REF_FRAME":"TEME","FILE":"3882049","MEAN_MOTION":"15.08860328","TLE_LINE1":"1 53015U 22076AF  23096.76419032  .00020674  00000-0  13125-2 0  9996","RA_OF_ASC_NODE":"198.2230","COUNTRY_CODE":"US","OBJECT_NAME":"STARLINK-4262","SITE":"AFETR","INCLINATION":"53.2150","APOAPSIS":"540.518","SEMIMAJOR_AXIS":"6917.818","MEAN_MOTION_DOT":"0.00020674","ARG_OF_PERICENTER":"86.8284","CLASSIFICATION_TYPE":"U","NORAD_CAT_ID":"53015","BSTAR":"0.00131250000000","PERIAPSIS":"538.849","OBJECT_TYPE":"PAYLOAD","ELEMENT_SET_NO":"999","GP_ID":"229644378","OBJECT_ID":"2022-076AF","TIME_SYSTEM":"UTC","REV_AT_EPOCH":"4176"},{"RA_OF_ASC_NODE":"198.7657","COUNTRY_CODE":"US","OBJECT_NAME":"STARLINK-4283","SITE":"AFETR","INCLINATION":"53.2175","APOAPSIS":"540.551","SEMIMAJOR_AXIS":"6917.854","MEAN_MOTION_DOT":"0.00002005","ARG_OF_PERICENTER":"75.4344","CLASSIFICATION_TYPE":"U","NORAD_CAT_ID":"53016","BSTAR":"0.00014402000000","PERIAPSIS":"538.888","OBJECT_TYPE":"PAYLOAD","ELEMENT_SET_NO":"999","GP_ID":"229616315","TIME_SYSTEM":"UTC","OBJECT_ID":"2022-076AG","REV_AT_EPOCH":"4221","EPOCH":"2023-04-06T15:25:33.612960","LAUNCH_DATE":"2022-07-07","MEAN_MOTION_DDOT":"0.0000000000000","EPHEMERIS_TYPE":"0","TLE_LINE2":"2 53016  53.2175 198.7657 0001202  75.4344 284.6781 15.08848568 42213","ECCENTRICITY":"0.00012020","RCS_SIZE":"LARGE","DECAY_DATE":null,"PERIOD":"95.437","MEAN_ANOMALY":"284.6781","CENTER_NAME":"EARTH","MEAN_ELEMENT_THEORY":"SGP4","REF_FRAME":"TEME","FILE":"3881833","MEAN_MOTION":"15.08848568","TLE_LINE1":"1 53016U 22076AG  23096.64275015  .00002005  00000-0  14402-3 0  9993"},{"DECAY_DATE":null,"PERIOD":"95.438","MEAN_ANOMALY":"276.2877","CENTER_NAME":"EARTH","MEAN_ELEMENT_THEORY":"SGP4","REF_FRAME":"TEME","FILE":"3881771","MEAN_MOTION":"15.08839177","TLE_LINE1":"1 53017U 22076AH  23096.49555620  .00002498  00000-0  17496-3 0  9992","EPOCH":"2023-04-06T11:53:36.055680","LAUNCH_DATE":"2022-07-07","EPHEMERIS_TYPE":"0","MEAN_MOTION_DDOT":"0.0000000000000","ECCENTRICITY":"0.00012020","TLE_LINE2":"2 53017  53.2166 199.4326 0001202  83.8252 276.2877 15.08839177 41731","RCS_SIZE":"LARGE","PERIAPSIS":"538.916","OBJECT_TYPE":"PAYLOAD","ELEMENT_SET_NO":"999","GP_ID":"229611033","TIME_SYSTEM":"UTC","OBJECT_ID":"2022-076AH","REV_AT_EPOCH":"4173","COUNTRY_CODE":"US","RA_OF_ASC_NODE":"199.4326","OBJECT_NAME":"STARLINK-4281","SITE":"AFETR","INCLINATION":"53.2166","APOAPSIS":"540.579","SEMIMAJOR_AXIS":"6917.883","MEAN_MOTION_DOT":"0.00002498","ARG_OF_PERICENTER":"83.8252","CLASSIFICATION_TYPE":"U","NORAD_CAT_ID":"53017","BSTAR":"0.00017496000000"},{"LAUNCH_DATE":"2022-07-07","EPOCH":"2023-04-06T12:10:51.807648","RCS_SIZE":"LARGE","TLE_LINE2":"2 53018  53.2165 199.3735 0001612  95.4435 264.6741 15.08849085 41720","ECCENTRICITY":"0.00016120","MEAN_MOTION_DDOT":"0.0000000000000","EPHEMERIS_TYPE":"0","REF_FRAME":"TEME","MEAN_ANOMALY":"264.6741","CENTER_NAME":"EARTH","MEAN_ELEMENT_THEORY":"SGP4","DECAY_DATE":null,"PERIOD":"95.437","TLE_LINE1":"1 53018U 22076AJ  23096.50754407 -.00003509  00000-0 -20242-3 0  9998","MEAN_MOTION":"15.08849085","FILE":"3881771","SEMIMAJOR_AXIS":"6917.853","MEAN_MOTION_DOT":"-0.00003509","INCLINATION":"53.2165","APOAPSIS":"540.833","SITE":"AFETR","OBJECT_NAME":"STARLINK-4279","RA_OF_ASC_NODE":"199.3735","COUNTRY_CODE":"US","BSTAR":"-0.00020242000000","CLASSIFICATION_TYPE":"U","NORAD_CAT_ID":"53018","ARG_OF_PERICENTER":"95.4435","ELEMENT_SET_NO":"999","GP_ID":"229611784","OBJECT_TYPE":"PAYLOAD","PERIAPSIS":"538.602","REV_AT_EPOCH":"4172","OBJECT_ID":"2022-076AJ","TIME_SYSTEM":"UTC"},{"TLE_LINE2":"2 53019  53.2155 198.5719 0001423  78.7331 281.3821 15.08846585 41752","ECCENTRICITY":"0.00014230","MEAN_MOTION_DDOT":"0.0000000000000","EPHEMERIS_TYPE":"0","RCS_SIZE":"LARGE","EPOCH":"2023-04-06T16:29:09.353184","LAUNCH_DATE":"2022-07-07","MEAN_MOTION":"15.08846585","FILE":"3882049","TLE_LINE1":"1 53019U 22076AK  23096.68691381  .00010091  00000-0  65111-3 0  9995","DECAY_DATE":null,"PERIOD":"95.437","REF_FRAME":"TEME","MEAN_ANOMALY":"281.3821","MEAN_ELEMENT_THEORY":"SGP4","CENTER_NAME":"EARTH","ARG_OF_PERICENTER":"78.7331","BSTAR":"0.00065111000000","CLASSIFICATION_TYPE":"U","NORAD_CAT_ID":"53019","SITE":"AFETR","OBJECT_NAME":"STARLINK-4282","RA_OF_ASC_NODE":"198.5719","COUNTRY_CODE":"US","SEMIMAJOR_AXIS":"6917.860","MEAN_MOTION_DOT":"0.00010091","INCLINATION":"53.2155","APOAPSIS":"540.710","TIME_SYSTEM":"UTC","OBJECT_ID":"2022-076AK","REV_AT_EPOCH":"4175","PERIAPSIS":"538.741","ELEMENT_SET_NO":"999","GP_ID":"229643890","OBJECT_TYPE":"PAYLOAD"},{"APOAPSIS":"540.891","INCLINATION":"53.2155","MEAN_MOTION_DOT":"0.00006110","SEMIMAJOR_AXIS":"6917.855","RA_OF_ASC_NODE":"198.2028","COUNTRY_CODE":"US","SITE":"AFETR","OBJECT_NAME":"STARLINK-4287","NORAD_CAT_ID":"53020","CLASSIFICATION_TYPE":"U","BSTAR":"0.00040155000000","ARG_OF_PERICENTER":"115.3005","OBJECT_TYPE":"PAYLOAD","GP_ID":"229644639","ELEMENT_SET_NO":"999","PERIAPSIS":"538.549","REV_AT_EPOCH":"4176","OBJECT_ID":"2022-076AL","TIME_SYSTEM":"UTC","LAUNCH_DATE":"2022-07-07","EPOCH":"2023-04-06T18:25:43.742496","RCS_SIZE":"LARGE","EPHEMERIS_TYPE":"0","MEAN_MOTION_DDOT":"0.0000000000000","TLE_LINE2":"2 53020  53.2155 198.2028 0001693 115.3005 244.8163 15.08848333 41766","ECCENTRICITY":"0.00016930","MEAN_ANOMALY":"244.8163","MEAN_ELEMENT_THEORY":"SGP4","CENTER_NAME":"EARTH","REF_FRAME":"TEME","PERIOD":"95.437","DECAY_DATE":null,"TLE_LINE1":"1 53020U 22076AL  23096.76786739  .00006110  00000-0  40155-3 0  9996","FILE":"3882049","MEAN_MOTION":"15.08848333"},{"TLE_LINE1":"1 53021U 22076AM  23096.87827231 -.00000549  00000-0 -16426-4 0  9999","MEAN_MOTION":"15.08839784","FILE":"3882049","REF_FRAME":"TEME","MEAN_ELEMENT_THEORY":"SGP4","MEAN_ANOMALY":"281.8617","CENTER_NAME":"EARTH","PERIOD":"95.438","DECAY_DATE":null,"RCS_SIZE":"LARGE","ECCENTRICITY":"0.00011160","TLE_LINE2":"2 53021  53.2147 197.7123 0001116  78.2501 281.8617 15.08839784 41783","EPHEMERIS_TYPE":"0","MEAN_MOTION_DDOT":"0.0000000000000","LAUNCH_DATE":"2022-07-07","EPOCH":"2023-04-06T21:04:42.727584","REV_AT_EPOCH":"4178","OBJECT_ID":"2022-076AM","TIME_SYSTEM":"UTC","GP_ID":"229644867","ELEMENT_SET_NO":"999","OBJECT_TYPE":"PAYLOAD","PERIAPSIS":"538.974","BSTAR":"-0.00001642600000","NORAD_CAT_ID":"53021","CLASSIFICATION_TYPE":"U","ARG_OF_PERICENTER":"78.2501","MEAN_MOTION_DOT":"-0.00000549","SEMIMAJOR_AXIS":"6917.881","APOAPSIS":"540.518","INCLINATION":"53.2147","SITE":"AFETR","OBJECT_NAME":"STARLINK-4203","COUNTRY_CODE":"US","RA_OF_ASC_NODE":"197.7123"},{"ARG_OF_PERICENTER":"61.6563","CLASSIFICATION_TYPE":"U","NORAD_CAT_ID":"53022","BSTAR":"0.00026113000000","RA_OF_ASC_NODE":"199.4500","COUNTRY_CODE":"US","SITE":"AFETR","OBJECT_NAME":"STARLINK-4216","APOAPSIS":"540.855","INCLINATION":"53.2165","MEAN_MOTION_DOT":"0.00003870","SEMIMAJOR_AXIS":"6917.879","OBJECT_ID":"2022-076AN","TIME_SYSTEM":"UTC","REV_AT_EPOCH":"4172","PERIAPSIS":"538.633","OBJECT_TYPE":"PAYLOAD","GP_ID":"229612285","ELEMENT_SET_NO":"999","MEAN_MOTION_DDOT":"0.0000000000000","EPHEMERIS_TYPE":"0","TLE_LINE2":"2 53022  53.2165 199.4500 0001606  61.6563 298.4591 15.08840558 41720","ECCENTRICITY":"0.00016060","RCS_SIZE":"LARGE","EPOCH":"2023-04-06T11:48:18.100224","LAUNCH_DATE":"2022-07-07","FILE":"3881771","MEAN_MOTION":"15.08840558","TLE_LINE1":"1 53022U 22076AN  23096.49187616  .00003870  00000-0  26113-3 0  9995","PERIOD":"95.438","DECAY_DATE":null,"MEAN_ANOMALY":"298.4591","MEAN_ELEMENT_THEORY":"SGP4","CENTER_NAME":"EARTH","REF_FRAME":"TEME"},{"TLE_LINE1":"1 53023U 22076AP  23096.47347381  .00001262  00000-0  97391-4 0  9991","FILE":"3881771","MEAN_MOTION":"15.08837998","MEAN_ANOMALY":"276.7309","CENTER_NAME":"EARTH","MEAN_ELEMENT_THEORY":"SGP4","REF_FRAME":"TEME","DECAY_DATE":null,"PERIOD":"95.438","RCS_SIZE":"LARGE","MEAN_MOTION_DDOT":"0.0000000000000","EPHEMERIS_TYPE":"0","ECCENTRICITY":"0.00015120","TLE_LINE2":"2 53023  53.2167 199.5214 0001512  83.3855 276.7309 15.08837998 41727","LAUNCH_DATE":"2022-07-07","EPOCH":"2023-04-06T11:21:48.137184","REV_AT_EPOCH":"4172","TIME_SYSTEM":"UTC","OBJECT_ID":"2022-076AP","OBJECT_TYPE":"PAYLOAD","ELEMENT_SET_NO":"999","GP_ID":"229612035","PERIAPSIS":"538.706","NORAD_CAT_ID":"53023","CLASSIFICATION_TYPE":"U","BSTAR":"0.00009739100000","ARG_OF_PERICENTER":"83.3855","INCLINATION":"53.2167","APOAPSIS":"540.797","SEMIMAJOR_AXIS":"6917.887","MEAN_MOTION_DOT":"0.00001262","COUNTRY_CODE":"US","RA_OF_ASC_NODE":"199.5214","SITE":"AFETR","OBJECT_NAME":"STARLINK-4284"}];
